[{"OBJECT_NAME":"STARLINK-5599","OBJECT_ID":"2023-028AB","EPOCH":"2026-03-09T19:52:09.580224","MEAN_MOTION":14.98323956,"ECCENTRICITY":0.00030597,"INCLINATION":69.9999,"RA_OF_ASC_NODE":224.1123,"ARG_OF_PERICENTER":269.3112,"MEAN_ANOMALY":90.7696,"EPHEMERIS_TYPE":0,"CLASSIFICATION_TYPE":"U","NORAD_CAT_ID":55766,"ELEMENT_SET_NO":999,"REV_AT_EPOCH":16655,"BSTAR":-0.00012890269,"MEAN_MOTION_DOT":-1.63e-5,"MEAN_MOTION_DDOT":0},{"OBJECT_NAME":"ELECTRON KICK STAGE R\/B","OBJECT_ID":"2024-114G","EPOCH":"2026-03-09T16:42:35.427168","MEAN_MOTION":15.12630878,"ECCENTRICITY":0.00674954,"INCLINATION":97.9507,"RA_OF_ASC_NODE":118.387,"ARG_OF_PERICENTER":79.3604,"MEAN_ANOMALY":281.5218,"EPHEMERIS_TYPE":0,"CLASSIFICATION_TYPE":"U","NORAD_CAT_ID":60085,"ELEMENT_SET_NO":999,"REV_AT_EPOCH":9434,"BSTAR":0.00053349816,"MEAN_MOTION_DOT":9.787e-5,"MEAN_MOTION_DDOT":0}]
